{
  "type": "FeatureCollection",
  "features": [
    {
      "type": "Feature",
      "properties": {
        "norad_id": 37484,
        "name": "COSMOS 2251 DEB",
        "group": "cosmos-2251-debris",
        "lat": 73.79671997072808,
        "lon": -61.53206999759982,
        "alt_km": 771.463473598501,
        "timestamp": "2025-12-11T07:02:24.128655+00:00",
        "meta_object_name": "COSMOS 2251 DEB",
        "meta_object_id": "1993-036BLM",
        "meta_epoch": "2025-12-08T23:58:05.079360",
        "meta_mean_motion": 14.41757676,
        "meta_eccentricity": 0.0040001,
        "meta_inclination": 73.8236,
        "meta_ra_of_asc_node": 215.4631,
        "meta_arg_of_pericenter": 250.9229,
        "meta_mean_anomaly": 173.1342,
        "meta_ephemeris_type": 0,
        "meta_classification_type": "U",
        "meta_norad_cat_id": 37484,
        "meta_element_set_no": 999,
        "meta_rev_at_epoch": 65325,
        "meta_bstar": 0.00081064,
        "meta_mean_motion_dot": 2.644e-05,
        "meta_mean_motion_ddot": 0,
        "tle_line1": "1 37484U 93036BLM 25342.99866990  .00002644  00000+0  81064-3 0  9996",
        "tle_line2": "2 37484  73.8236 215.4631 0040001 250.9229 173.1342 14.41757676653253"
      },
      "geometry": {
        "type": "Point",
        "coordinates": [
          -61.53206999759982,
          73.79671997072808
        ]
      }
    },
    {
      "type": "Feature",
      "properties": {
        "norad_id": 37486,
        "name": "COSMOS 2251 DEB",
        "group": "cosmos-2251-debris",
        "lat": 40.03210490572289,
        "lon": -77.02350752029758,
        "alt_km": 990.2249467000584,
        "timestamp": "2025-12-11T07:02:24.128676+00:00",
        "meta_object_name": "COSMOS 2251 DEB",
        "meta_object_id": "1993-036BLP",
        "meta_epoch": "2025-12-08T15:36:14.085792",
        "meta_mean_motion": 14.13268533,
        "meta_eccentricity": 0.0229186,
        "meta_inclination": 73.6904,
        "meta_ra_of_asc_node": 121.9918,
        "meta_arg_of_pericenter": 350.7921,
        "meta_mean_anomaly": 22.951,
        "meta_ephemeris_type": 0,
        "meta_classification_type": "U",
        "meta_norad_cat_id": 37486,
        "meta_element_set_no": 999,
        "meta_rev_at_epoch": 63312,
        "meta_bstar": 0.0028521,
        "meta_mean_motion_dot": 6.844e-05,
        "meta_mean_motion_ddot": 0,
        "tle_line1": "1 37486U 93036BLP 25342.65016303  .00006844  00000+0  28521-2 0  9990",
        "tle_line2": "2 37486  73.6904 121.9918 0229186 350.7921  22.9510 14.13268533633125"
      },
      "geometry": {
        "type": "Point",
        "coordinates": [
          -77.02350752029758,
          40.03210490572289
        ]
      }
    },
    {
      "type": "Feature",
      "properties": {
        "norad_id": 37487,
        "name": "COSMOS 2251 DEB",
        "group": "cosmos-2251-debris",
        "lat": -54.133276553500444,
        "lon": 38.508847524192944,
        "alt_km": 649.3390833019394,
        "timestamp": "2025-12-11T07:02:24.128687+00:00",
        "meta_object_name": "COSMOS 2251 DEB",
        "meta_object_id": "1993-036BLQ",
        "meta_epoch": "2025-12-09T23:09:56.223648",
        "meta_mean_motion": 14.80815093,
        "meta_eccentricity": 0.00253501,
        "meta_inclination": 73.9017,
        "meta_ra_of_asc_node": 197.6051,
        "meta_arg_of_pericenter": 36.1899,
        "meta_mean_anomaly": 324.0985,
        "meta_ephemeris_type": 0,
        "meta_classification_type": "U",
        "meta_norad_cat_id": 37487,
        "meta_element_set_no": 999,
        "meta_rev_at_epoch": 81204,
        "meta_bstar": 0.0039104448,
        "meta_mean_motion_dot": 0.00030433,
        "meta_mean_motion_ddot": 0,
        "tle_line1": "1 37487U 93036BLQ 25343.96523407  .00030433  00000+0  39104-2 0  9994",
        "tle_line2": "2 37487  73.9017 197.6051 0025350  36.1899 324.0985 14.80815093812043"
      },
      "geometry": {
        "type": "Point",
        "coordinates": [
          38.508847524192944,
          -54.133276553500444
        ]
      }
    },
    {
      "type": "Feature",
      "properties": {
        "norad_id": 37491,
        "name": "COSMOS 2251 DEB",
        "group": "cosmos-2251-debris",
        "lat": -3.5902561280853647,
        "lon": 97.55590575821255,
        "alt_km": 960.9153944235095,
        "timestamp": "2025-12-11T07:02:24.128697+00:00",
        "meta_object_name": "COSMOS 2251 DEB",
        "meta_object_id": "1993-036BLU",
        "meta_epoch": "2025-12-10T12:39:26.554752",
        "meta_mean_motion": 13.75279669,
        "meta_eccentricity": 0.0317504,
        "meta_inclination": 73.9065,
        "meta_ra_of_asc_node": 277.8015,
        "meta_arg_of_pericenter": 271.2819,
        "meta_mean_anomaly": 85.1951,
        "meta_ephemeris_type": 0,
        "meta_classification_type": "U",
        "meta_norad_cat_id": 37491,
        "meta_element_set_no": 999,
        "meta_rev_at_epoch": 55716,
        "meta_bstar": 0.0018392,
        "meta_mean_motion_dot": 2.522e-05,
        "meta_mean_motion_ddot": 0,
        "tle_line1": "1 37491U 93036BLU 25344.52739068  .00002522  00000+0  18392-2 0  9998",
        "tle_line2": "2 37491  73.9065 277.8015 0317504 271.2819  85.1951 13.75279669557164"
      },
      "geometry": {
        "type": "Point",
        "coordinates": [
          97.55590575821255,
          -3.5902561280853647
        ]
      }
    },
    {
      "type": "Feature",
      "properties": {
        "norad_id": 37498,
        "name": "COSMOS 2251 DEB",
        "group": "cosmos-2251-debris",
        "lat": -0.8904135867006681,
        "lon": 6.875747679746496,
        "alt_km": 709.7778036176496,
        "timestamp": "2025-12-11T07:02:24.128708+00:00",
        "meta_object_name": "COSMOS 2251 DEB",
        "meta_object_id": "1993-036BMB",
        "meta_epoch": "2025-12-10T07:06:15.238080",
        "meta_mean_motion": 14.54745919,
        "meta_eccentricity": 0.0012071,
        "meta_inclination": 74.0358,
        "meta_ra_of_asc_node": 188.5072,
        "meta_arg_of_pericenter": 251.507,
        "meta_mean_anomaly": 108.4781,
        "meta_ephemeris_type": 0,
        "meta_classification_type": "U",
        "meta_norad_cat_id": 37498,
        "meta_element_set_no": 999,
        "meta_rev_at_epoch": 65319,
        "meta_bstar": 0.0008921,
        "meta_mean_motion_dot": 3.798e-05,
        "meta_mean_motion_ddot": 0,
        "tle_line1": "1 37498U 93036BMB 25344.29600970  .00003798  00000+0  89210-3 0  9992",
        "tle_line2": "2 37498  74.0358 188.5072 0012071 251.5070 108.4781 14.54745919653194"
      },
      "geometry": {
        "type": "Point",
        "coordinates": [
          6.875747679746496,
          -0.8904135867006681
        ]
      }
    },
    {
      "type": "Feature",
      "properties": {
        "norad_id": 37499,
        "name": "COSMOS 2251 DEB",
        "group": "cosmos-2251-debris",
        "lat": 38.195018776272924,
        "lon": 131.82474101704994,
        "alt_km": 776.8642673428194,
        "timestamp": "2025-12-11T07:02:24.128718+00:00",
        "meta_object_name": "COSMOS 2251 DEB",
        "meta_object_id": "1993-036BMC",
        "meta_epoch": "2025-12-10T05:17:01.570848",
        "meta_mean_motion": 14.34338479,
        "meta_eccentricity": 0.0026827,
        "meta_inclination": 74.0377,
        "meta_ra_of_asc_node": 326.8027,
        "meta_arg_of_pericenter": 43.5901,
        "meta_mean_anomaly": 316.7364,
        "meta_ephemeris_type": 0,
        "meta_classification_type": "U",
        "meta_norad_cat_id": 37499,
        "meta_element_set_no": 999,
        "meta_rev_at_epoch": 85113,
        "meta_bstar": 0.00027087,
        "meta_mean_motion_dot": 7.38e-06,
        "meta_mean_motion_ddot": 0,
        "tle_line1": "1 37499U 93036BMC 25344.22015707  .00000738  00000+0  27087-3 0  9999",
        "tle_line2": "2 37499  74.0377 326.8027 0026827  43.5901 316.7364 14.34338479851131"
      },
      "geometry": {
        "type": "Point",
        "coordinates": [
          131.82474101704994,
          38.195018776272924
        ]
      }
    },
    {
      "type": "Feature",
      "properties": {
        "norad_id": 37528,
        "name": "COSMOS 2251 DEB",
        "group": "cosmos-2251-debris",
        "lat": -29.64426589665829,
        "lon": -45.768012785024055,
        "alt_km": 722.4517017953549,
        "timestamp": "2025-12-11T07:02:24.128728+00:00",
        "meta_object_name": "COSMOS 2251 DEB",
        "meta_object_id": "1993-036BNH",
        "meta_epoch": "2025-12-08T16:49:26.649696",
        "meta_mean_motion": 14.50498376,
        "meta_eccentricity": 0.00210456,
        "meta_inclination": 74.0372,
        "meta_ra_of_asc_node": 129.7266,
        "meta_arg_of_pericenter": 278.202,
        "meta_mean_anomaly": 81.6753,
        "meta_ephemeris_type": 0,
        "meta_classification_type": "U",
        "meta_norad_cat_id": 37528,
        "meta_element_set_no": 999,
        "meta_rev_at_epoch": 85872,
        "meta_bstar": 0.00091460645,
        "meta_mean_motion_dot": 3.563e-05,
        "meta_mean_motion_ddot": 0,
        "tle_line1": "1 37528U 93036BNH 25342.70100289  .00003563  00000+0  91461-3 0  9999",
        "tle_line2": "2 37528  74.0372 129.7266 0021045 278.2020  81.6753 14.50498376858723"
      },
      "geometry": {
        "type": "Point",
        "coordinates": [
          -45.768012785024055,
          -29.64426589665829
        ]
      }
    }
  ]
}